[{"OBJECT_NAME":"VNREDSAT 1","OBJECT_ID":"2013-021B","EPOCH":"2026-03-09T23:27:54.067104","MEAN_MOTION":14.6507341,"ECCENTRICITY":0.00016268,"INCLINATION":97.921,"RA_OF_ASC_NODE":126.138,"ARG_OF_PERICENTER":85.4971,"MEAN_ANOMALY":274.6418,"EPHEMERIS_TYPE":0,"CLASSIFICATION_TYPE":"U","NORAD_CAT_ID":39160,"ELEMENT_SET_NO":999,"REV_AT_EPOCH":68576,"BSTAR":0.00011871025,"MEAN_MOTION_DOT":5.92e-6,"MEAN_MOTION_DDOT":0},{"OBJECT_NAME":"COSMOS 2251 DEB","OBJECT_ID":"1993-036ABJ","EPOCH":"2026-03-09T04:09:17.470368","MEAN_MOTION":14.65468364,"ECCENTRICITY":0.00132195,"INCLINATION":74.0211,"RA_OF_ASC_NODE":336.2959,"ARG_OF_PERICENTER":49.2534,"MEAN_ANOMALY":100.9667,"EPHEMERIS_TYPE":0,"CLASSIFICATION_TYPE":"U","NORAD_CAT_ID":34819,"ELEMENT_SET_NO":999,"REV_AT_EPOCH":89494,"BSTAR":0.0014807778,"MEAN_MOTION_DOT":8.008e-5,"MEAN_MOTION_DDOT":0}]
